NORAD_CAT_ID,OBJECT_NAME,OBJECT_TYPE,EPOCH,MEAN_MOTION,ECCENTRICITY,INCLINATION,RA_OF_ASC_NODE,ARG_OF_PERICENTER,MEAN_ANOMALY,BSTAR,MEAN_MOTION_DOT,MEAN_MOTION_DDOT,TLE_LINE0,TLE_LINE1,TLE_LINE2,SEMIMAJOR_AXIS,PERIOD,APOGEE,PERIGEE,DECAYED
53438.0,STARLINK-4526,PAYLOAD,2024-04-11 21:01:26,15.08833752,0.0001559,53.2188,351.8865,86.6151,273.5019,8.7507e-05,1.105e-05,0.0,0 STARLINK-4526,1 53438U 22097BC  24102.87599657  .00001105  00000-0  87507-4 0  9996,2 53438  53.2188 351.8865 0001559  86.6151 273.5019 15.08833752 93118,6917.899,95.438,540.843,538.686,0.0
53438.0,STARLINK-4526,PAYLOAD,2024-04-11 22:36:49,15.08815987,0.0001436,53.2175,351.5887,88.4274,271.6882,0.00035145,5.306e-05,0.0,0 STARLINK-4526,1 53438U 22097BC  24102.94224276  .00005306  00000-0  35145-3 0  9993,2 53438  53.2175 351.5887 0001436  88.4274 271.6882 15.08815987 93617,6917.954,95.439,540.812,538.825,0.0
53438.0,STARLINK-4526,PAYLOAD,2024-04-12 00:12:12,15.08841482,0.0001509,53.218,351.2915,87.6397,272.4768,6.2219e-05,7.02e-06,0.0,0 STARLINK-4526,1 53438U 22097BC  24103.00847310  .00000702  00000-0  62219-4 0  9999,2 53438  53.2180 351.2915 0001509  87.6397 272.4768 15.08841482 93138,6917.876,95.437,540.785,538.697,0.0
53438.0,STARLINK-4526,PAYLOAD,2024-04-12 22:27:36,15.08842114,0.0001473,53.2177,347.1287,90.4396,269.6765,1.4551e-05,-5.6e-07,0.0,0 STARLINK-4526,1 53438U 22097BC  24103.93583483 -.00000056  00000-0  14551-4 0  9998,2 53438  53.2177 347.1287 0001473  90.4396 269.6765 15.08842114 93768,6917.874,95.437,540.758,538.72,0.0
53438.0,STARLINK-4526,PAYLOAD,2024-04-13 20:42:59,15.08836835,0.0001505,53.218,342.9646,91.8525,268.264,0.00020995,3.055e-05,0.0,0 STARLINK-4526,1 53438U 22097BC  24104.86319210  .00003055  00000-0  20995-3 0  9995,2 53438  53.2180 342.9646 0001505  91.8525 268.2640 15.08836835 93411,6917.89,95.438,540.796,538.714,0.0
53438.0,STARLINK-4526,PAYLOAD,2024-04-14 22:09:09,15.08849971,0.0001456,53.2191,338.2067,83.7938,276.322,-5.1235e-05,-1.104e-05,0.0,0 STARLINK-4526,1 53438U 22097BC  24105.92303093 -.00001104  00000-0 -51235-4 0  9992,2 53438  53.2191 338.2067 0001456  83.7938 276.3220 15.08849971 94062,6917.85,95.437,540.722,538.708,0.0
53438.0,STARLINK-4526,PAYLOAD,2024-04-15 01:19:55,15.08852345,0.000142,53.2192,337.6077,86.9228,273.1926,-7.6115e-05,-1.5e-05,0.0,0 STARLINK-4526,1 53438U 22097BC  24106.05550874 -.00001500  00000-0 -76115-4 0  9992,2 53438  53.2192 337.6077 0001420  86.9228 273.1926 15.08852345 93599,6917.843,95.437,540.69,538.725,0.0
53438.0,STARLINK-4526,PAYLOAD,2024-04-15 20:24:34,15.08838879,0.0001245,53.2175,334.0367,80.9576,279.1557,-5.3589e-05,-1.141e-05,0.0,0 STARLINK-4526,1 53438U 22097BC  24106.85039734 -.00001141  00000-0 -53589-4 0  9998,2 53438  53.2175 334.0367 0001245  80.9576 279.1557 15.08838879 93714,6917.884,95.438,540.61,538.888,0.0
53438.0,STARLINK-4526,PAYLOAD,2024-04-16 07:32:16,15.08840065,0.000101,53.2171,331.9616,95.9363,264.1744,7.5719e-05,9.18e-06,0.0,0 STARLINK-4526,1 53438U 22097BC  24107.31407477  .00000918  00000-0  75719-4 0  9991,2 53438  53.2171 331.9616 0001010  95.9363 264.1744 15.08840065 94277,6917.88,95.438,540.444,539.046,0.0
53438.0,STARLINK-4526,PAYLOAD,2024-04-16 20:15:20,15.08849871,9.22e-05,53.2165,329.5824,98.2656,261.844,8.2e-05,1.018e-05,0.0,0 STARLINK-4526,1 53438U 22097BC  24107.84398914  .00001018  00000-0  82000-4 0  9997,2 53438  53.2165 329.5824 0000922  98.2656 261.8440 15.08849871 93861,6917.85,95.437,540.353,539.077,0.0
53438.0,STARLINK-4526,PAYLOAD,2024-04-16 21:50:43,15.08851232,0.0001327,53.218,329.2879,116.2726,243.8403,0.00018693,2.689e-05,0.0,0 STARLINK-4526,1 53438U 22097BC  24107.91022876  .00002689  00000-0  18693-3 0  9997,2 53438  53.2180 329.2879 0001327 116.2726 243.8403 15.08851232 94363,6917.846,95.437,540.629,538.793,0.0
53438.0,STARLINK-4526,PAYLOAD,2024-04-17 21:41:31,15.08834054,0.0001037,53.2166,324.8241,81.6866,278.4243,-1.6942e-06,-3.15e-06,0.0,0 STARLINK-4526,1 53438U 22097BC  24108.90384215 -.00000315  00000-0 -16942-5 0  9998,2 53438  53.2166 324.8241 0001037  81.6866 278.4243 15.08834054 94021,6917.899,95.438,540.481,539.046,0.0
53438.0,STARLINK-4526,PAYLOAD,2024-04-17 23:16:55,15.08833971,0.0001054,53.2166,324.5269,85.1972,274.914,-1.9908e-06,-3.19e-06,0.0,0 STARLINK-4526,1 53438U 22097BC  24108.97008245 -.00000319  00000-0 -19908-5 0  9990,2 53438  53.2166 324.5269 0001054  85.1972 274.9140 15.08833971 94523,6917.899,95.438,540.493,539.035,0.0
53438.0,STARLINK-4526,PAYLOAD,2024-04-18 19:56:52,15.08901119,0.0001386,53.2168,320.6603,120.1882,239.9247,0.00077914,0.00012154,0.0,0 STARLINK-4526,1 53438U 22097BC  24109.83116639  .00012154  00000-0  77914-3 0  9990,2 53438  53.2168 320.6603 0001386 120.1882 239.9247 15.08901119 94161,6917.694,95.434,540.517,538.6,0.0
53438.0,STARLINK-4526,PAYLOAD,2024-04-18 21:32:15,15.08901562,0.000127,53.2167,320.3629,93.4387,266.675,0.00078467,0.00012243,0.0,0 STARLINK-4526,1 53438U 22097BC  24109.89740581  .00012243  00000-0  78467-3 0  9998,2 53438  53.2167 320.3629 0001270  93.4387 266.6750 15.08901562 94662,6917.692,95.434,540.436,538.679,0.0
53438.0,STARLINK-4526,PAYLOAD,2024-04-18 23:07:38,15.08902257,0.0001405,53.2172,320.0648,107.3115,252.8031,0.00087603,0.00013705,0.0,0 STARLINK-4526,1 53438U 22097BC  24109.96364398  .00013705  00000-0  87603-3 0  9990,2 53438  53.2172 320.0648 0001405 107.3115 252.8031 15.08902257 94672,6917.69,95.434,540.527,538.583,0.0
53438.0,STARLINK-4526,PAYLOAD,2024-04-19 21:23:03,15.08859003,0.0001393,53.2166,315.9027,71.1247,288.9896,0.00024611,3.633e-05,0.0,0 STARLINK-4526,1 53438U 22097BC  24110.89101688  .00003633  00000-0  24611-3 0  9994,2 53438  53.2166 315.9027 0001393  71.1247 288.9896 15.08859003 94320,6917.822,95.436,540.651,538.724,0.0
53438.0,STARLINK-4526,PAYLOAD,2024-04-20 13:16:56,15.08818367,0.0001774,53.2167,312.9288,78.3788,281.7404,-0.0011216,-0.00018084,0.0,0 STARLINK-4526,1 53438U 22097BC  24111.55342857 -.00018084  00000-0 -11216-2 0  9997,2 53438  53.2167 312.9288 0001774  78.3788 281.7404 15.08818367 94424,6917.947,95.439,541.039,538.584,0.0
53438.0,STARLINK-4526,PAYLOAD,2024-04-20 19:38:29,15.08809975,0.0001453,53.2162,311.7397,89.3024,270.8135,-0.00090023,-0.00014575,0.0,0 STARLINK-4526,1 53438U 22097BC  24111.81839582 -.00014575  00000-0 -90023-3 0  9997,2 53438  53.2162 311.7397 0001453  89.3024 270.8135 15.08809975 94959,6917.972,95.439,540.842,538.832,0.0
53438.0,STARLINK-4526,PAYLOAD,2024-04-21 19:29:17,15.08848029,0.0001428,53.2156,307.2796,78.9516,281.1637,0.00071069,0.00011043,0.0,0 STARLINK-4526,1 53438U 22097BC  24112.81200382  .00011043  00000-0  71069-3 0  9992,2 53438  53.2156 307.2796 0001428  78.9516 281.1637 15.08848029 94615,6917.856,95.437,540.709,538.733,0.0
53438.0,STARLINK-4526,PAYLOAD,2024-04-21 22:40:03,15.0884859,0.0001367,53.2155,306.682,103.8638,256.2506,0.00069839,0.00010847,0.0,0 STARLINK-4526,1 53438U 22097BC  24112.94448233  .00010847  00000-0  69839-3 0  9998,2 53438  53.2155 306.6820 0001367 103.8638 256.2506 15.08848590 95128,6917.854,95.437,540.665,538.773,0.0
53438.0,STARLINK-4526,PAYLOAD,2024-04-22 17:44:41,15.08844655,0.000188,53.217,303.1093,131.3149,228.8005,0.00047709,7.314e-05,0.0,0 STARLINK-4526,1 53438U 22097BC  24113.73936839  .00007314  00000-0  47709-3 0  9997,2 53438  53.2170 303.1093 0001880 131.3149 228.8005 15.08844655 94757,6917.866,95.437,541.032,538.431,0.0
53438.0,STARLINK-4526,PAYLOAD,2024-04-23 17:35:28,15.08847588,0.0001364,53.2169,298.662,91.5964,268.5185,-2.9581e-06,-3.35e-06,0.0,0 STARLINK-4526,1 53438U 22097BC  24114.73296609 -.00000335  00000-0 -29581-5 0  9990,2 53438  53.2169 298.6620 0001364  91.5964 268.5185 15.08847588 94903,6917.857,95.437,540.666,538.779,0.0
53438.0,STARLINK-4526,PAYLOAD,2024-04-24 12:40:06,15.08837964,0.0001634,53.2164,295.0887,98.0476,262.0702,-5.8875e-05,-1.225e-05,0.0,0 STARLINK-4526,1 53438U 22097BC  24115.52785027 -.00001225  00000-0 -58875-4 0  9991,2 53438  53.2164 295.0887 0001634  98.0476 262.0702 15.08837964 95029,6917.887,95.438,540.882,538.621,0.0
53438.0,STARLINK-4526,PAYLOAD,2024-04-24 15:50:52,15.0884,0.0001206,53.2167,294.4945,79.3357,280.777,6.5243e-05,7.51e-06,0.0,0 STARLINK-4526,1 53438U 22097BC  24115.66033067  .00000751  00000-0  65243-4 0  9994,2 53438  53.2167 294.4945 0001206  79.3357 280.7770 15.08840000 95538,6917.88,95.438,540.58,538.911,0.0
53438.0,STARLINK-4526,PAYLOAD,2024-04-25 10:55:30,15.0884034,0.0001211,53.216,290.9249,81.0194,279.0935,4.1652e-05,3.75e-06,0.0,0 STARLINK-4526,1 53438U 22097BC  24116.45521094  .00000375  00000-0  41652-4 0  9994,2 53438  53.2160 290.9249 0001211  81.0194 279.0935 15.08840340 95658,6917.879,95.438,540.582,538.907,0.0
53438.0,STARLINK-4526,PAYLOAD,2024-04-25 17:17:02,15.08839589,0.0001267,53.2161,289.7352,89.9017,270.212,3.0324e-05,1.95e-06,0.0,0 STARLINK-4526,1 53438U 22097BC  24116.72017147  .00000195  00000-0  30324-4 0  9997,2 53438  53.2161 289.7352 0001267  89.9017 270.2120 15.08839589 95205,6917.882,95.438,540.623,538.87,0.0
53438.0,STARLINK-4526,PAYLOAD,2024-04-26 10:46:17,15.08834749,0.000133,53.2167,286.4644,97.936,262.1783,-1.1029e-05,-4.63e-06,0.0,0 STARLINK-4526,1 53438U 22097BC  24117.44881599 -.00000463  00000-0 -11029-4 0  9998,2 53438  53.2167 286.4644 0001330  97.9360 262.1783 15.08834749 95804,6917.896,95.438,540.682,538.841,0.0
53438.0,STARLINK-4526,PAYLOAD,2024-04-26 15:32:27,15.08831569,0.0001269,53.2167,285.573,97.6621,262.4515,0.00019443,2.807e-05,0.0,0 STARLINK-4526,1 53438U 22097BC  24117.64753790  .00002807  00000-0  19443-3 0  9990,2 53438  53.2167 285.5730 0001269  97.6621 262.4515 15.08831569 95340,6917.906,95.438,540.649,538.893,0.0
53438.0,STARLINK-4526,PAYLOAD,2024-04-27 04:15:31,15.08845993,0.0001307,53.2172,283.1923,101.6994,258.4145,0.00018536,2.664e-05,0.0,0 STARLINK-4526,1 53438U 22097BC  24118.17744962  .00002664  00000-0  18536-3 0  9993,2 53438  53.2172 283.1923 0001307 101.6994 258.4145 15.08845993 95425,6917.862,95.437,540.631,538.823,0.0
